KUIPER-00176            
1 65788U 25217AC  25355.16668980 -.00035688  00000+0 -39937-2 0  9999
2 65788  51.8986  30.6030 0002937  22.4491 314.0004 14.86451904  5658
KUIPER-00101            
1 65947U 25228A   25355.16668980 -.00055698  00000+0 -67038-2 0  9994
2 65947  51.8991 347.9422 0002172  41.3516 301.7952 14.83686550  5096
KUIPER-00113            
1 65948U 25228B   25355.16668980 -.00034658  00000+0 -27862-2 0  9999
2 65948  51.8912 344.1040 0006275  59.6942 245.5151 14.99465903  5559
KUIPER-00117            
1 65949U 25228C   25355.16668980 -.00049183  00000+0 -51165-2 0  9992
2 65949  51.8985 345.7685 0008992  63.1150 121.0842 14.89522317  5772
KUIPER-00121            
1 65950U 25228D   25355.16668980 -.02062734  00000+0 -12764+0 0  9992
2 65950  51.8847 342.1050 0006241  69.0207 253.1182 15.13200517  1303
KUIPER-00122            
1 65951U 25228E   25355.16668980 -.00202158  00000+0 -27269-1 0  9995
2 65951  51.9100 350.2837 0000873 120.9340 133.1465 14.79971630  4430
KUIPER-00123            
1 65952U 25228F   25355.16668980 -.00030788  00000+0 -41120-2 0  9997
2 65952  51.8988 350.3098 0001355 147.7291 285.1627 14.79066011  4966
KUIPER-00124            
1 65953U 25228G   25355.16668980 -.00094023  00000+0 -82968-2 0  9995
2 65953  51.8949 343.3421 0004706  74.3238  17.5011 14.96395455  4718
